{"fetched_at":"2026-03-29T16:36:15Z","count":15609,"tles":[{"name":"STARLINK-3121","line1":"1 49428U 21104W   26087.86266026  .00000259  00000+0  34380-4 0  9991","line2":"2 49428  53.2165 142.9616 0001342  90.0386 270.0760 15.08838197241533","category":"Starlink"}]}